NORAD_CAT_ID,OBJECT_NAME,OBJECT_TYPE,EPOCH,MEAN_MOTION,ECCENTRICITY,INCLINATION,RA_OF_ASC_NODE,ARG_OF_PERICENTER,MEAN_ANOMALY,BSTAR,MEAN_MOTION_DOT,MEAN_MOTION_DDOT,TLE_LINE0,TLE_LINE1,TLE_LINE2,SEMIMAJOR_AXIS,PERIOD,APOGEE,PERIGEE,DECAYED
49736.0,STARLINK-3148,PAYLOAD,2024-05-05 11:11:21,15.08843409,0.0001012,53.2183,291.2213,96.6881,263.4226,5.4353e-05,5.77e-06,0.0,0 STARLINK-3148,1 49736U 21115N   24126.46622357  .00000577  00000-0  54353-4 0  9992,2 49736  53.2183 291.2213 0001012  96.6881 263.4226 15.08843409135012,6917.87,95.437,540.435,539.035,0.0
49736.0,STARLINK-3148,PAYLOAD,2024-05-05 14:22:07,15.08848873,0.0001111,53.2183,290.6266,98.8922,261.2196,9.1225e-05,1.165e-05,0.0,0 STARLINK-3148,1 49736U 21115N   24126.59869955  .00001165  00000-0  91225-4 0  9996,2 49736  53.2183 290.6266 0001111  98.8922 261.2196 15.08848873133923,6917.853,95.437,540.487,538.95,0.0
49736.0,STARLINK-3148,PAYLOAD,2024-05-05 17:32:53,15.08854666,0.0001098,53.218,290.0339,81.8854,278.2263,4.1695e-05,3.76e-06,0.0,0 STARLINK-3148,1 49736U 21115N   24126.73117759  .00000376  00000-0  41695-4 0  9999,2 49736  53.2180 290.0339 0001098  81.8854 278.2263 15.08854666135051,6917.836,95.437,540.46,538.941,0.0
49736.0,STARLINK-3148,PAYLOAD,2024-05-06 14:12:55,15.08840541,0.0001175,53.2168,286.1683,84.4635,275.6491,0.00021581,3.148e-05,0.0,0 STARLINK-3148,1 49736U 21115N   24127.59230663  .00003148  00000-0  21581-3 0  9995,2 49736  53.2168 286.1683 0001175  84.4635 275.6491 15.08840541134079,6917.879,95.438,540.557,538.931,0.0
49736.0,STARLINK-3148,PAYLOAD,2024-05-06 17:23:41,15.0884619,0.0001093,53.216,285.5745,89.1295,270.9822,0.00028828,4.304e-05,0.0,0 STARLINK-3148,1 49736U 21115N   24127.72478380  .00004304  00000-0  28828-3 0  9996,2 49736  53.2160 285.5745 0001093  89.1295 270.9822 15.08846190135204,6917.861,95.437,540.483,538.97,0.0
49736.0,STARLINK-3148,PAYLOAD,2024-05-07 10:52:55,15.08841487,0.0001112,53.2167,282.3018,87.0396,273.0723,5.2476e-05,5.47e-06,0.0,0 STARLINK-3148,1 49736U 21115N   24128.45342585  .00000547  00000-0  52476-4 0  9996,2 49736  53.2167 282.3018 0001112  87.0396 273.0723 15.08841487135310,6917.876,95.437,540.51,538.972,0.0
49736.0,STARLINK-3148,PAYLOAD,2024-05-07 14:03:42,15.08838148,0.0001104,53.2163,281.708,86.265,273.8469,3.9638e-06,-2.25e-06,0.0,0 STARLINK-3148,1 49736U 21115N   24128.58590689 -.00000225  00000-0  39638-5 0  9990,2 49736  53.2163 281.7080 0001104  86.2650 273.8469 15.08838148134227,6917.886,95.438,540.515,538.987,0.0
49736.0,STARLINK-3148,PAYLOAD,2024-05-07 17:14:28,15.08840015,0.0001111,53.2168,281.114,92.2233,267.8886,2.1603e-05,5.6e-07,0.0,0 STARLINK-3148,1 49736U 21115N   24128.71838609  .00000056  00000-0  21603-4 0  9995,2 49736  53.2168 281.1140 0001111  92.2233 267.8886 15.08840015134249,6917.88,95.438,540.514,538.977,0.0
49736.0,STARLINK-3148,PAYLOAD,2024-05-08 13:54:29,15.0883829,9.9e-05,53.2159,277.2483,85.2979,274.8127,-7.5023e-06,-4.07e-06,0.0,0 STARLINK-3148,1 49736U 21115N   24129.57950890 -.00000407  00000-0 -75023-5 0  9995,2 49736  53.2159 277.2483 0000990  85.2979 274.8127 15.08838290134370,6917.886,95.438,540.435,539.066,0.0
49736.0,STARLINK-3148,PAYLOAD,2024-05-08 17:05:15,15.08843675,9.42e-05,53.2166,276.6545,89.4221,270.6879,5.3709e-05,5.67e-06,0.0,0 STARLINK-3148,1 49736U 21115N   24129.71198825  .00000567  00000-0  53709-4 0  9994,2 49736  53.2166 276.6545 0000942  89.4221 270.6879 15.08843675135500,6917.869,95.437,540.386,539.082,0.0
49736.0,STARLINK-3148,PAYLOAD,2024-05-09 13:45:16,15.0883639,0.0001012,53.216,272.7884,82.7349,277.3758,8.9454e-05,1.136e-05,0.0,0 STARLINK-3148,1 49736U 21115N   24130.57311212  .00001136  00000-0  89454-4 0  9996,2 49736  53.2160 272.7884 0001012  82.7349 277.3758 15.08836390134520,6917.891,95.438,540.457,539.056,0.0
49736.0,STARLINK-3148,PAYLOAD,2024-05-09 16:56:02,15.08844541,0.0001419,53.2159,272.1925,53.6652,306.4471,0.00019351,2.793e-05,0.0,0 STARLINK-3148,1 49736U 21115N   24130.70558992  .00002793  00000-0  19351-3 0  9997,2 49736  53.2159 272.1925 0001419  53.6652 306.4471 15.08844541134548,6917.867,95.437,540.713,538.75,0.0
49736.0,STARLINK-3148,PAYLOAD,2024-05-10 02:28:21,15.08841704,9.32e-05,53.2165,270.4077,84.7396,275.3702,0.00026497,3.932e-05,0.0,0 STARLINK-3148,1 49736U 21115N   24131.10303065  .00003932  00000-0  26497-3 0  9996,2 49736  53.2165 270.4077 0000932  84.7396 275.3702 15.08841704135712,6917.875,95.437,540.385,539.095,0.0
49736.0,STARLINK-3148,PAYLOAD,2024-05-10 15:11:26,15.08841343,8.93e-05,53.2153,268.0305,83.6867,276.4227,0.00011397,1.527e-05,0.0,0 STARLINK-3148,1 49736U 21115N   24131.63295102  .00001527  00000-0  11397-3 0  9997,2 49736  53.2153 268.0305 0000893  83.6867 276.4227 15.08841343134681,6917.876,95.437,540.359,539.124,0.0
49736.0,STARLINK-3148,PAYLOAD,2024-05-11 13:26:46,15.0894959,0.0001554,53.2181,263.8671,94.4711,265.6459,0.0021789,0.00034664,0.0,0 STARLINK-3148,1 49736U 21115N   24132.56026275  .00034664  00000-0  21789-2 0  9996,2 49736  53.2181 263.8671 0001554  94.4711 265.6459 15.08949590135933,6917.545,95.431,540.485,538.335,0.0
49736.0,STARLINK-3148,PAYLOAD,2024-05-11 15:02:10,15.08897326,0.000186,53.218,263.5692,99.7833,260.3369,0.00077561,0.00012097,0.0,0 STARLINK-3148,1 49736U 21115N   24132.62651374  .00012097  00000-0  77561-3 0  9993,2 49736  53.2180 263.5692 0001860  99.7833 260.3369 15.08897326135947,6917.705,95.434,540.857,538.283,0.0
49736.0,STARLINK-3148,PAYLOAD,2024-05-12 02:09:55,15.08789373,0.0001758,53.2145,261.4885,90.14,269.9794,-0.0019617,-0.0003133,0.0,0 STARLINK-3148,1 49736U 21115N   24133.09022592 -.00031330  00000-0 -19617-2 0  9999,2 49736  53.2145 261.4885 0001758  90.1400 269.9794 15.08789373136018,6918.035,95.441,541.116,538.684,0.0
49736.0,STARLINK-3148,PAYLOAD,2024-05-12 13:17:40,15.08733349,0.0001398,53.2151,259.4073,92.2803,267.8349,-0.0023065,-0.00036702,0.0,0 STARLINK-3148,1 49736U 21115N   24133.55394077 -.00036702  00000-0 -23065-2 0  9990,2 49736  53.2151 259.4073 0001398  92.2803 267.8349 15.08733349136083,6918.206,95.444,541.039,539.104,0.0
49736.0,STARLINK-3148,PAYLOAD,2024-05-12 14:53:03,15.08736016,0.0001542,53.2153,259.1091,103.8473,256.269,-0.0023591,-0.00037531,0.0,0 STARLINK-3148,1 49736U 21115N   24133.62018462 -.00037531  00000-0 -23591-2 0  9994,2 49736  53.2153 259.1091 0001542 103.8473 256.2690 15.08736016134987,6918.198,95.444,541.13,538.996,0.0
49736.0,STARLINK-3148,PAYLOAD,2024-05-13 11:33:07,15.08833321,0.0001303,53.2165,255.2436,100.1857,259.9282,0.0031066,0.00049492,0.0,0 STARLINK-3148,1 49736U 21115N   24134.48133708  .00049492  00000-0  31066-2 0  9993,2 49736  53.2165 255.2436 0001303 100.1857 259.9282 15.08833321136224,6917.901,95.438,540.667,538.864,0.0
49736.0,STARLINK-3148,PAYLOAD,2024-05-13 14:43:53,15.08847722,0.0001266,53.2157,254.6478,84.8061,275.3076,0.0027685,0.00044058,0.0,0 STARLINK-3148,1 49736U 21115N   24134.61381542  .00044058  00000-0  27685-2 0  9994,2 49736  53.2157 254.6478 0001266  84.8061 275.3076 15.08847722135139,6917.857,95.437,540.598,538.846,0.0
49736.0,STARLINK-3148,PAYLOAD,2024-05-13 17:54:39,15.08860149,0.0001385,53.2163,254.054,82.1215,277.9934,0.0021392,0.0003394,0.0,0 STARLINK-3148,1 49736U 21115N   24134.74629052  .00033940  00000-0  21392-2 0  9996,2 49736  53.2163 254.0540 0001385  82.1215 277.9934 15.08860149135155,6917.819,95.436,540.642,538.726,0.0
49736.0,STARLINK-3148,PAYLOAD,2024-05-14 14:34:36,15.0892159,0.0001316,53.2149,250.1875,76.0291,284.0848,0.0013039,0.00020571,0.0,0 STARLINK-3148,1 49736U 21115N   24135.60736831  .00020571  00000-0  13039-2 0  9991,2 49736  53.2149 250.1875 0001316  76.0291 284.0848 15.08921590135282,6917.631,95.432,540.406,538.586,0.0
49736.0,STARLINK-3148,PAYLOAD,2024-05-15 00:06:54,15.08902509,0.0001491,53.2167,248.4023,72.7132,287.4023,0.00053516,8.254e-05,0.0,0 STARLINK-3148,1 49736U 21115N   24136.00479864  .00008254  00000-0  53516-3 0  9995,2 49736  53.2167 248.4023 0001491  72.7132 287.4023 15.08902509136459,6917.689,95.434,540.586,538.523,0.0
49736.0,STARLINK-3148,PAYLOAD,2024-05-15 12:49:59,15.0885997,0.0001253,53.2161,246.0249,85.8538,274.2597,0.0012981,0.00020443,0.0,0 STARLINK-3148,1 49736U 21115N   24136.53471584  .00020443  00000-0  12981-2 0  9998,2 49736  53.2161 246.0249 0001253  85.8538 274.2597 15.08859970136530,6917.819,95.436,540.551,538.818,0.0
49736.0,STARLINK-3148,PAYLOAD,2024-05-16 11:05:22,15.08855255,0.0001827,53.2152,241.8609,69.2547,290.8641,0.0014909,0.00023529,0.0,0 STARLINK-3148,1 49736U 21115N   24137.46207097  .00023529  00000-0  14909-2 0  9997,2 49736  53.2152 241.8609 0001827  69.2547 290.8641 15.08855255136677,6917.834,95.437,540.963,538.435,0.0
49736.0,STARLINK-3148,PAYLOAD,2024-05-16 14:16:08,15.08871975,7.63e-05,53.2158,241.2697,75.6608,284.4469,0.0031083,0.00049572,0.0,0 STARLINK-3148,1 49736U 21115N   24137.59454607  .00049572  00000-0  31083-2 0  9990,2 49736  53.2158 241.2697 0000763  75.6608 284.4469 15.08871975135584,6917.783,95.436,540.175,539.12,0.0
49736.0,STARLINK-3148,PAYLOAD,2024-05-16 17:26:54,15.08900891,0.0001326,53.2169,240.6735,79.2748,280.8393,0.0038917,0.000623,0.0,0 STARLINK-3148,1 49736U 21115N   24137.72702148  .00062300  00000-0  38917-2 0  9998,2 49736  53.2169 240.6735 0001326  79.2748 280.8393 15.08900891136715,6917.694,95.434,540.477,538.642,0.0
49736.0,STARLINK-3148,PAYLOAD,2024-05-17 12:31:32,15.08867314,0.0001455,53.2156,237.1019,124.7098,235.4031,0.0022494,0.0003572,0.0,0 STARLINK-3148,1 49736U 21115N   24138.52190258  .00035720  00000-0  22494-2 0  9999,2 49736  53.2156 237.1019 0001455 124.7098 235.4031 15.08867314136834,6917.797,95.436,540.668,538.655,0.0
49736.0,STARLINK-3148,PAYLOAD,2024-05-17 15:42:18,15.08872162,0.0001248,53.2153,236.5075,95.5449,264.5686,0.0022401,0.00035575,0.0,0 STARLINK-3148,1 49736U 21115N   24138.65438251  .00035575  00000-0  22401-2 0  9997,2 49736  53.2153 236.5075 0001248  95.5449 264.5686 15.08872162135746,6917.782,95.436,540.51,538.784,0.0
